satname,norad_id,inclination_deg,eccentricity,mean_motion_rev_per_day,perigee_km,apogee_km,l1,l2
STARLINK-1234,45190,53.0336,0.0001344,15.81855474,324.292693749524,326.0945490205522,1 45190U 20012N   26178.18341438  .00116997  00000+0  56211-3 0  9990,2 45190  53.0336 143.5634 0001344 114.7577 245.3585 15.81855474353080
STARLINK-1269,45197,53.1545,0.0002593,15.36743001,453.97617047585663,457.52022333897185,1 45197U 20012V   26178.89814559  .00042657  00000+0  11752-2 0  9995,2 45197  53.1545 245.8562 0002593 359.2464   0.8535 15.36743001351814
STARLINK-1154,45198,53.0392,0.0004256,15.65296345,369.5135871517423,375.25963284857517,1 45198U 20012W   26178.78066991  .00038518  00000+0  38401-3 0  9995,2 45198  53.0392 196.9141 0004256  38.0764 322.0551 15.65296345352438
STARLINK-1199,45201,53.1538,0.0005193,15.36743418,452.1981247029089,459.29579658443254,1 45201U 20012Z   26178.86920342  .00057928  00000+0  15884-2 0  9993,2 45201  53.1538 230.2604 0005193 353.8508   6.2431 15.36743418352059
STARLINK-1209,45206,53.0354,0.0001397,15.72488794,350.84644758952345,352.7267882483702,1 45206U 20012AE  26178.25307865  .00067535  00000+0  49645-3 0  9998,2 45206  53.0354 159.2138 0001397 109.5306 250.5862 15.72488794352027
STARLINK-1231,45212,53.0358,0.0002254,15.29082299,477.00885757965625,480.09985404285635,1 45212U 20012AL  26178.55746863  .00040371  00000+0  14154-2 0  9998,2 45212  53.0358 227.7923 0002254  68.9939 291.1301 15.29082299351990
STARLINK-1271,45217,53.156,0.0004579,15.36869392,452.24445153658326,458.5025804671377,1 45217U 20012AR  26178.86436118  .00042478  00000+0  11653-2 0  9997,2 45217  53.1560 230.3799 0004579 358.8960   1.2033 15.36869392352054
STARLINK-1191,45222,53.1528,0.0003626,15.41019767,440.6249842501302,445.57174413624307,1 45222U 20012AW  26178.79151029  .00049150  00000+0  11752-2 0  9994,2 45222  53.1528 203.1412 0003626 338.8355  21.2500 15.41019767352434
STARLINK-1212,45223,53.0375,0.0001542,15.71353851,353.9885256316393,356.0650333412332,1 45223U 20012AX  26178.89473707  .00060812  00000+0  46978-3 0  9993,2 45223  53.0375 171.5069 0001542  95.0535 265.0658 15.71353851352864
STARLINK-1215,45225,53.1548,0.0005231,15.37001632,451.4071466348223,458.5559552628256,1 45225U 20012AZ  26178.79680743  .00043790  00000+0  11956-2 0  9997,2 45225  53.1548 204.9418 0005231   0.2197 359.8808 15.37001632352362
STARLINK-1221,45227,53.0634,0.0003177,15.45697176,427.1675960927914,431.493060833297,1 45227U 20012BB  26178.77578531  .00064032  00000+0  13030-2 0  9995,2 45227  53.0634 106.5015 0003177  29.4655 330.6530 15.45697176353710
STARLINK-1222,45228,53.05,0.0003742,15.56565997,395.0688038502176,400.1397686288383,1 45228U 20012BC  26178.28637034  .00031901  00000+0  44604-3 0  9997,2 45228  53.0500 174.6420 0003742  52.7231 307.4120 15.56565997352652
STARLINK-1226,45229,53.1532,0.0005533,15.46270325,423.88238833197556,431.41367004527547,1 45229U 20012BD  26178.77329397  .00057882  00000+0  11564-2 0  9996,2 45229  53.1532 199.8074 0005533   0.3242 359.7768 15.46270325352378
STARLINK-1227,45230,53.1515,0.0005396,15.46362508,423.70529624469054,431.04980754909775,1 45230U 20012BE  26178.78188510  .00058164  00000+0  11583-2 0  9994,2 45230  53.1515 199.8559 0005396 353.4999   6.5938 15.46362508352491
STARLINK-1246,45235,53.1548,0.0004304,15.36888029,452.37715257985747,458.2593908777617,1 45235U 20012BK  26178.90392840  .00044704  00000+0  12248-2 0  9990,2 45235  53.1548 245.4493 0004304 325.1082  34.9639 15.36888029351878
STARLINK-1270,45237,53.0368,0.0001655,15.70392378,356.65995950908837,358.8895462993005,1 45237U 20012BM  26178.69216274  .00054977  00000+0  44287-3 0  9996,2 45237  53.0368 174.3278 0001655 101.1617 258.9585 15.70392378352809
STARLINK-1279,45360,53.034,0.0002787,15.82954065,320.22444218777946,323.95914971864386,1 45360U 20019A   26179.00002315  .00118229  00000+0  53944-3 0  9996,2 45360  53.0340 274.0097 0002787 357.2989 210.2676 15.82954065  6006
STARLINK-1301,45361,53.0328,0.0004502,15.84609173,314.4110944241602,320.4397788421047,1 45361U 20019B   26179.00002315  .00116864  00000+0  49293-3 0  9992,2 45361  53.0328 276.1158 0004502 352.5030 236.4255 15.84609173  6019
STARLINK-1262,45366,53.1531,0.0003058,15.35806158,456.43637958180625,460.61768330343693,1 45366U 20019G   26178.82311319  .00051856  00000+0  14680-2 0  9993,2 45366  53.1531  12.4204 0003058 161.8022 198.3091 15.35806158346638
STARLINK-1273,45367,53.0436,0.0001638,15.59871021,386.9217336645688,389.13832998419366,1 45367U 20019H   26178.89279270  .00096137  00000+0  11659-2 0  9994,2 45367  53.0436 344.1775 0001638 137.9901 222.1237 15.59871021347010
STARLINK-1277,45369,53.042,5.62e-05,15.69067965,361.18586404963935,361.94340651344464,1 45369U 20019K   26178.74194907  .00054342  00000+0  46249-3 0  9999,2 45369  53.0420 337.7520 0000562  32.5619 327.5432 15.69067965347092
STARLINK-1281,45370,53.157,0.0003403,15.36607757,453.8234714659666,458.4748866394293,1 45370U 20019L   26178.82374821  .00049781  00000+0  13742-2 0  9997,2 45370  53.1570  11.9338 0003403 141.5601 218.5646 15.36607757346647
STARLINK-1300,45374,53.157,0.0003015,15.37214734,452.2900308619728,456.41002053847023,1 45374U 20019Q   26178.82857040  .00053058  00000+0  14351-2 0  9999,2 45374  53.1570  11.7379 0003015 156.7860 203.3280 15.37214734346644
STARLINK-1302,45375,53.0454,0.0002624,15.69361457,358.95605444767443,362.49260887452965,1 45375U 20019R   26178.84156654  .00054533  00000+0  45848-3 0  9990,2 45375  53.0454 333.0787 0002624 121.1140 239.0134 15.69361457347162
STARLINK-1304,45376,53.042,0.0001786,15.65312929,371.133295126574,373.5445651288146,1 45376U 20019S   26178.83174544  .00046863  00000+0  46538-3 0  9992,2 45376  53.0420 335.0360 0001786 156.9949 203.1146 15.65312929347134
STARLINK-1305,45377,53.0383,0.0004349,15.74118966,344.2146125497093,350.0642579931073,1 45377U 20019T   26178.80346377  .00075019  00000+0  51324-3 0  9999,2 45377  53.0383 312.4468 0004349 316.4424  43.6251 15.74118966347454
STARLINK-1319,45379,53.0365,0.0001261,15.81191273,326.2251803748777,327.91623375859945,1 45379U 20019V   26178.94326139  .00102979  00000+0  51145-3 0  9997,2 45379  53.0365 302.4968 0001261   9.1569 350.9475 15.81191273347605
STARLINK-1266,45383,53.0452,0.0001797,15.67712424,364.23729476209155,366.6609396126087,1 45383U 20019Z   26178.81584989  .00048537  00000+0  43744-3 0  9992,2 45383  53.0452 319.7046 0001797 314.3777  45.7091 15.67712424347346
STARLINK-1267,45384,53.0436,0.0001111,15.71893084,352.73894752514207,354.2347143403749,1 45384U 20019AA  26178.77135321  .00064126  00000+0  48384-3 0  9997,2 45384  53.0436 311.0012 0001111  67.5669 292.5466 15.71893084347462
STARLINK-1272,45386,53.0382,0.0001346,15.76507094,339.44167940654006,341.25029502669895,1 45386U 20019AC  26179.00002315  .00019038  00000+0  12121-3 0  9994,2 45386  53.0382 288.0048 0001346  50.4494 355.0597 15.76507094  5888
STARLINK-1274,45387,53.0182,0.000505,15.65559342,368.22194634028256,375.039211595039,1 45387U 20019AD  26179.00002315  .00086325  00000+0  83987-3 0  9996,2 45387  53.0182 288.4118 0005050 254.3970 111.9038 15.65559342  5766
STARLINK-1280,45388,53.0338,0.0004269,15.87235189,307.1831930573135,312.8935571925949,1 45388U 20019AE  26179.00002315  .00093436  00000+0  34855-3 0  9998,2 45388  53.0338 293.7013 0004269 347.2917 341.5174 15.87235189  6012
STARLINK-1283,45389,53.0379,0.0002416,15.74079124,345.62806427952455,348.87777268813534,1 45389U 20019AF  26178.68180266  .00066249  00000+0  45514-3 0  9990,2 45389  53.0379 288.5561 0002416 303.2038  56.8748 15.74079124347771
STARLINK-1284,45390,53.0402,0.0002851,15.72325555,350.33357674413764,354.1712447861555,1 45390U 20019AG  26178.78470423  .00061939  00000+0  45910-3 0  9991,2 45390  53.0402 312.1840 0002851  61.5723 298.5581 15.72325555347446
STARLINK-1297,45395,53.0407,0.0001051,15.75135616,343.5387756372729,344.9518203963171,1 45395U 20019AM  26178.92705085  .00082432  00000+0  53904-3 0  9990,2 45395  53.0407 310.5203 0001051  24.9070 335.2000 15.75135616346668
STARLINK-1307,45397,53.0528,7.84e-05,15.58031385,392.82417275218177,393.8859427068346,1 45397U 20019AP  26178.77270049  .00041925  00000+0  55246-3 0  9995,2 45397  53.0528 319.2091 0000784 254.8982 105.1943 15.58031385347179
STARLINK-1255,45399,53.0339,0.0001352,15.67656348,364.6981763678641,366.5216855379931,1 45399U 20019AR  26178.69314362  .00047361  00000+0  42800-3 0  9997,2 45399  53.0339 286.0649 0001352 188.1967 171.9026 15.67656348347619
STARLINK-1260,45404,53.1559,0.0002797,15.3978558,444.8339162739476,448.65175405373884,1 45404U 20019AW  26178.82648933  .00055310  00000+0  13751-2 0  9998,2 45404  53.1559 334.1875 0002797 163.1637 196.9461 15.39785580346886
STARLINK-1263,45405,53.1574,0.0001876,15.36860967,454.11651871132744,456.6804612271635,1 45405U 20019AX  26178.83527978  .00054210  00000+0  14827-2 0  9998,2 45405  53.1574 335.8279 0001876 198.6162 161.4774 15.36860967346865
STARLINK-1265,45406,53.154,5.7e-05,15.40213259,445.09043071161614,445.86832297857654,1 45406U 20019AY  26178.74950559  .00101022  00000+0  24538-2 0  9998,2 45406  53.1540 334.4888 0000570  94.8281 265.2789 15.40213259346870
STARLINK-1278,45408,53.0398,0.0001617,15.7605937,340.53172527423885,342.70489414139956,1 45408U 20019BA  26178.55986505  .00074149  00000+0  46656-3 0  9994,2 45408  53.0398 311.1302 0001617  43.0259 317.0887 15.76059370347168
STARLINK-1296,45412,53.1544,0.0002018,15.40370067,443.6393654983722,446.3931901613032,1 45412U 20019BE  26178.72180031  .00058024  00000+0  14142-2 0  9996,2 45412  53.1544 334.2849 0002018 143.2369 216.8774 15.40370067346878
STARLINK-1309,45414,53.0603,0.0001414,15.7468284,344.58312145102354,346.4845755669812,1 45414U 20019BG  26178.65820963  .00068324  00000+0  45712-3 0  9997,2 45414  53.0603 304.8002 0001414  38.4619 321.6500 15.74682840347247
